LEMUR-2-FURIAUS         
1 42840U 17042R   26068.96143223  .00025928  00000+0  99966-3 0  9991
2 42840  97.3753 248.4990 0007537  55.8686 304.3266 15.26272951473053
STARLINK-30309          
1 57632U 23122A   26068.41243341 -.00004488  00000+0 -15787-3 0  9993
2 57632  42.9987  94.1486 0001094 299.3962  60.6780 15.26712855142163
